{
  "norad_id": 66914,
  "name": "2025-284B",
  "history": [
    {
      "epoch": "2026-03-28T22:05:51.153216Z",
      "apogee_km": 912.1014726599251,
      "perigee_km": 894.2040624113233,
      "latitude_deg": -1.9398428112802095e-05,
      "longitude_deg": -144.75889142341373,
      "height_km": 906.0883405677399,
      "semi_major_axis_km": 7281.289767535624,
      "eccentricity": 0.001229,
      "inclination_deg": 80.4015,
      "raan_deg": 13.0385,
      "arg_perigee_deg": 90.71,
      "mean_anomaly_deg": 269.5469,
      "mean_motion_rev_day": 13.9730203
    },
    {
      "epoch": "2026-03-29T04:58:17.799744Z",
      "apogee_km": 912.1014599227101,
      "perigee_km": 894.202595235115,
      "latitude_deg": -3.719279939853732e-05,
      "longitude_deg": 111.54877049641726,
      "height_km": 905.9770190628622,
      "semi_major_axis_km": 7281.289027578912,
      "eccentricity": 0.0012291,
      "inclination_deg": 80.4015,
      "raan_deg": 12.7395,
      "arg_perigee_deg": 90.0021,
      "mean_anomaly_deg": 270.2548,
      "mean_motion_rev_day": 13.97302243
    },
    {
      "epoch": "2026-03-30T05:01:51.060000Z",
      "apogee_km": 912.1097256027506,
      "perigee_km": 894.1919325130048,
      "latitude_deg": -3.4475706077308855e-05,
      "longitude_deg": 108.62560936440829,
      "height_km": 905.5817785301128,
      "semi_major_axis_km": 7281.287829057877,
      "eccentricity": 0.0012304,
      "inclination_deg": 80.4016,
      "raan_deg": 11.693,
      "arg_perigee_deg": 87.4817,
      "mean_anomaly_deg": 272.7752,
      "mean_motion_rev_day": 13.97302588
    },
    {
      "epoch": "2026-03-30T05:01:51.060864Z",
      "apogee_km": 912.1094343512377,
      "perigee_km": 894.1922237645185,
      "latitude_deg": -2.993327453721781e-05,
      "longitude_deg": 108.62560651868719,
      "height_km": 905.5817913286256,
      "semi_major_axis_km": 7281.287829057877,
      "eccentricity": 0.00123036,
      "inclination_deg": 80.4016,
      "raan_deg": 11.693,
      "arg_perigee_deg": 87.4817,
      "mean_anomaly_deg": 272.7752,
      "mean_motion_rev_day": 13.97302588
    }
  ]
}